[{"OBJECT_NAME":"STARLINK-31495","OBJECT_ID":"2024-056T","EPOCH":"2026-03-09T11:04:09.923808","MEAN_MOTION":15.27571993,"ECCENTRICITY":0.00012844,"INCLINATION":43.0007,"RA_OF_ASC_NODE":224.6995,"ARG_OF_PERICENTER":269.6644,"MEAN_ANOMALY":90.406,"EPHEMERIS_TYPE":0,"CLASSIFICATION_TYPE":"U","NORAD_CAT_ID":59313,"ELEMENT_SET_NO":999,"REV_AT_EPOCH":11120,"BSTAR":-4.4413387e-5,"MEAN_MOTION_DOT":-1.484e-5,"MEAN_MOTION_DDOT":0},{"OBJECT_NAME":"COSMOS 2251 DEB","OBJECT_ID":"1993-036RB","EPOCH":"2026-03-09T01:08:04.800192","MEAN_MOTION":15.30699894,"ECCENTRICITY":0.00252965,"INCLINATION":73.7308,"RA_OF_ASC_NODE":76.2904,"ARG_OF_PERICENTER":263.9966,"MEAN_ANOMALY":95.8352,"EPHEMERIS_TYPE":0,"CLASSIFICATION_TYPE":"U","NORAD_CAT_ID":34410,"ELEMENT_SET_NO":999,"REV_AT_EPOCH":91089,"BSTAR":0.003018315,"MEAN_MOTION_DOT":0.00091531,"MEAN_MOTION_DDOT":0}]
